{"type": "FeatureCollection", "features": [ {"type": "Feature", "properties": {"norad_id": 66848, "name": "STARLINK-36091", "group": "last-30-days", "lat": -41.7560371573082, "lon": -31.183227125827152, "alt_km": 347.6139765657317, "timestamp": "2025-12-20T09:36:00.353771+00:00", "meta": {"OBJECT_NAME": "STARLINK-36091", "OBJECT_ID": "2025-281A", "EPOCH": "2025-12-20T04:00:00.999072", "MEAN_MOTION": 15.75422059, "ECCENTRICITY": 0.0001413, "INCLINATION": 43.0008, "RA_OF_ASC_NODE": 76.8971, "ARG_OF_PERICENTER": 264.0228, "MEAN_ANOMALY": 108.9472, "EPHEMERIS_TYPE": 0, "CLASSIFICATION_TYPE": "U", "NORAD_CAT_ID": 66848, "ELEMENT_SET_NO": 999, "REV_AT_EPOCH": 258, "BSTAR": -0.0090085, "MEAN_MOTION_DOT": -0.01264182, "MEAN_MOTION_DDOT": 0}, "tle": {"line1": "1 66848U 25281A   25354.16667823 -.01264182  00000+0 -90085-2 0  9997", "line2": "2 66848  43.0008  76.8971 0001413 264.0228 108.9472 15.75422059  2586"}}, "geometry": {"type": "Point", "coordinates": [-31.183227125827152, -41.7560371573082]}}, {"type": "Feature", "properties": {"norad_id": 66849, "name": "STARLINK-36102", "group": "last-30-days", "lat": -42.10295265545982, "lon": -28.65495462597594, "alt_km": 347.5535808963723, "timestamp": "2025-12-20T09:36:00.353782+00:00", "meta": {"OBJECT_NAME": "STARLINK-36102", "OBJECT_ID": "2025-281B", "EPOCH": "2025-12-20T04:00:00.999072", "MEAN_MOTION": 15.75417044, "ECCENTRICITY": 0.0001538, "INCLINATION": 43.0008, "RA_OF_ASC_NODE": 76.8919, "ARG_OF_PERICENTER": 265.7826, "MEAN_ANOMALY": 109.1106, "EPHEMERIS_TYPE": 0, "CLASSIFICATION_TYPE": "U", "NORAD_CAT_ID": 66849, "ELEMENT_SET_NO": 999, "REV_AT_EPOCH": 258, "BSTAR": -0.0089884, "MEAN_MOTION_DOT": -0.01261462, "MEAN_MOTION_DDOT": 0}, "tle": {"line1": "1 66849U 25281B   25354.16667823 -.01261462  00000+0 -89884-2 0  9991", "line2": "2 66849  43.0008  76.8919 0001538 265.7826 109.1106 15.75417044  2584"}}, "geometry": {"type": "Point", "coordinates": [-28.65495462597594, -42.10295265545982]}}, {"type": "Feature", "properties": {"norad_id": 66850, "name": "STARLINK-36105", "group": "last-30-days", "lat": -42.39255768839439, "lon": -26.110672217941726, "alt_km": 347.56734363030137, "timestamp": "2025-12-20T09:36:00.353791+00:00", "meta": {"OBJECT_NAME": "STARLINK-36105", "OBJECT_ID": "2025-281C", "EPOCH": "2025-12-20T04:00:00.999072", "MEAN_MOTION": 15.75421374, "ECCENTRICITY": 0.0001531, "INCLINATION": 43.0008, "RA_OF_ASC_NODE": 76.887, "ARG_OF_PERICENTER": 270.8762, "MEAN_ANOMALY": 105.9264, "EPHEMERIS_TYPE": 0, "CLASSIFICATION_TYPE": "U", "NORAD_CAT_ID": 66850, "ELEMENT_SET_NO": 999, "REV_AT_EPOCH": 258, "BSTAR": -0.00898, "MEAN_MOTION_DOT": -0.01260613, "MEAN_MOTION_DDOT": 0}, "tle": {"line1": "1 66850U 25281C   25354.16667823 -.01260613  00000+0 -89800-2 0  9998", "line2": "2 66850  43.0008  76.8870 0001531 270.8762 105.9264 15.75421374  2581"}}, "geometry": {"type": "Point", "coordinates": [-26.110672217941726, -42.39255768839439]}}, {"type": "Feature", "properties": {"norad_id": 66851, "name": "STARLINK-36094", "group": "last-30-days", "lat": -42.622592616145006, "lon": -23.579299436523144, "alt_km": 347.55688048712364, "timestamp": "2025-12-20T09:36:00.353803+00:00", "meta": {"OBJECT_NAME": "STARLINK-36094", "OBJECT_ID": "2025-281D", "EPOCH": "2025-12-20T04:00:00.999072", "MEAN_MOTION": 15.75417686, "ECCENTRICITY": 0.0001464, "INCLINATION": 43.0009, "RA_OF_ASC_NODE": 76.8821, "ARG_OF_PERICENTER": 271.95, "MEAN_ANOMALY": 106.7313, "EPHEMERIS_TYPE": 0, "CLASSIFICATION_TYPE": "U", "NORAD_CAT_ID": 66851, "ELEMENT_SET_NO": 999, "REV_AT_EPOCH": 258, "BSTAR": -0.0086204, "MEAN_MOTION_DOT": -0.01194314, "MEAN_MOTION_DDOT": 0}, "tle": {"line1": "1 66851U 25281D   25354.16667823 -.01194314  00000+0 -86204-2 0  9998", "line2": "2 66851  43.0009  76.8821 0001464 271.9500 106.7313 15.75417686  2581"}}, "geometry": {"type": "Point", "coordinates": [-23.579299436523144, -42.622592616145006]}}, {"type": "Feature", "properties": {"norad_id": 66852, "name": "STARLINK-35992", "group": "last-30-days", "lat": -42.801259217934664, "lon": -20.939519810011944, "alt_km": 347.5651421910661, "timestamp": "2025-12-20T09:36:00.353813+00:00", "meta": {"OBJECT_NAME": "STARLINK-35992", "OBJECT_ID": "2025-281E", "EPOCH": "2025-12-20T04:00:00.999072", "MEAN_MOTION": 15.75430775, "ECCENTRICITY": 0.0001575, "INCLINATION": 43.0008, "RA_OF_ASC_NODE": 76.8776, "ARG_OF_PERICENTER": 275.4734, "MEAN_ANOMALY": 105.1678, "EPHEMERIS_TYPE": 0, "CLASSIFICATION_TYPE": "U", "NORAD_CAT_ID": 66852, "ELEMENT_SET_NO": 999, "REV_AT_EPOCH": 258, "BSTAR": -0.0091456, "MEAN_MOTION_DOT": -0.01281983, "MEAN_MOTION_DDOT": 0}, "tle": {"line1": "1 66852U 25281E   25354.16667823 -.01281983  00000+0 -91456-2 0  9993", "line2": "2 66852  43.0008  76.8776 0001575 275.4734 105.1678 15.75430775  2582"}}, "geometry": {"type": "Point", "coordinates": [-20.939519810011944, -42.801259217934664]}}, {"type": "Feature", "properties": {"norad_id": 66853, "name": "STARLINK-35986", "group": "last-30-days", "lat": -42.917177892745016, "lon": -18.342339904620736, "alt_km": 347.4870514988115, "timestamp": "2025-12-20T09:36:00.353825+00:00", "meta": {"OBJECT_NAME": "STARLINK-35986", "OBJECT_ID": "2025-281F", "EPOCH": "2025-12-20T04:00:00.999072", "MEAN_MOTION": 15.7543007, "ECCENTRICITY": 0.0001664, "INCLINATION": 43.0009, "RA_OF_ASC_NODE": 76.8725, "ARG_OF_PERICENTER": 273.7962, "MEAN_ANOMALY": 108.7569, "EPHEMERIS_TYPE": 0, "CLASSIFICATION_TYPE": "U", "NORAD_CAT_ID": 66853, "ELEMENT_SET_NO": 999, "REV_AT_EPOCH": 258, "BSTAR": -0.0090894, "MEAN_MOTION_DOT": -0.01274921, "MEAN_MOTION_DDOT": 0}, "tle": {"line1": "1 66853U 25281F   25354.16667823 -.01274921  00000+0 -90894-2 0  9993", "line2": "2 66853  43.0009  76.8725 0001664 273.7962 108.7569 15.75430070  2587"}}, "geometry": {"type": "Point", "coordinates": [-18.342339904620736, -42.917177892745016]}}, {"type": "Feature", "properties": {"norad_id": 66854, "name": "STARLINK-36087", "group": "last-30-days", "lat": -42.97383675180286, "lon": -15.731673369028508, "alt_km": 347.47696011053995, "timestamp": "2025-12-20T09:36:00.353835+00:00", "meta": {"OBJECT_NAME": "STARLINK-36087", "OBJECT_ID": "2025-281G", "EPOCH": "2025-12-20T04:00:00.999072", "MEAN_MOTION": 15.75428213, "ECCENTRICITY": 0.000167, "INCLINATION": 43.0008, "RA_OF_ASC_NODE": 76.8675, "ARG_OF_PERICENTER": 269.7773, "MEAN_ANOMALY": 114.6935, "EPHEMERIS_TYPE": 0, "CLASSIFICATION_TYPE": "U", "NORAD_CAT_ID": 66854, "ELEMENT_SET_NO": 999, "REV_AT_EPOCH": 258, "BSTAR": -0.009084, "MEAN_MOTION_DOT": -0.01274146, "MEAN_MOTION_DDOT": 0}, "tle": {"line1": "1 66854U 25281G   25354.16667823 -.01274146  00000+0 -90840-2 0  9994", "line2": "2 66854  43.0008  76.8675 0001670 269.7773 114.6935 15.75428213  2582"}}, "geometry": {"type": "Point", "coordinates": [-15.731673369028508, -42.97383675180286]}}, {"type": "Feature", "properties": {"norad_id": 66855, "name": "STARLINK-36090", "group": "last-30-days", "lat": -42.97109186069183, "lon": -13.120331498246221, "alt_km": 347.67281676238053, "timestamp": "2025-12-20T09:36:00.353844+00:00", "meta": {"OBJECT_NAME": "STARLINK-36090", "OBJECT_ID": "2025-281H", "EPOCH": "2025-12-20T04:00:00.999072", "MEAN_MOTION": 15.75419858, "ECCENTRICITY": 0.0001401, "INCLINATION": 43.0009, "RA_OF_ASC_NODE": 76.8627, "ARG_OF_PERICENTER": 275.2803, "MEAN_ANOMALY": 111.1135, "EPHEMERIS_TYPE": 0, "CLASSIFICATION_TYPE": "U", "NORAD_CAT_ID": 66855, "ELEMENT_SET_NO": 999, "REV_AT_EPOCH": 246, "BSTAR": -0.0090087, "MEAN_MOTION_DOT": -0.01264099, "MEAN_MOTION_DDOT": 0}, "tle": {"line1": "1 66855U 25281H   25354.16667823 -.01264099  00000+0 -90087-2 0  9994", "line2": "2 66855  43.0009  76.8627 0001401 275.2803 111.1135 15.75419858  2465"}}, "geometry": {"type": "Point", "coordinates": [-13.120331498246221, -42.97109186069183]}}, {"type": "Feature", "properties": {"norad_id": 66856, "name": "STARLINK-36072", "group": "last-30-days", "lat": -42.908538947976425, "lon": -10.509913685256564, "alt_km": 347.6657443770164, "timestamp": "2025-12-20T09:36:00.353856+00:00", "meta": {"OBJECT_NAME": "STARLINK-36072", "OBJECT_ID": "2025-281J", "EPOCH": "2025-12-20T04:00:00.999072", "MEAN_MOTION": 15.75416966, "ECCENTRICITY": 0.0001408, "INCLINATION": 43.0008, "RA_OF_ASC_NODE": 76.8576, "ARG_OF_PERICENTER": 271.9275, "MEAN_ANOMALY": 116.3855, "EPHEMERIS_TYPE": 0, "CLASSIFICATION_TYPE": "U", "NORAD_CAT_ID": 66856, "ELEMENT_SET_NO": 999, "REV_AT_EPOCH": 258, "BSTAR": -0.0089988, "MEAN_MOTION_DOT": -0.01262704, "MEAN_MOTION_DDOT": 0}, "tle": {"line1": "1 66856U 25281J   25354.16667823 -.01262704  00000+0 -89988-2 0  9994", "line2": "2 66856  43.0008  76.8576 0001408 271.9275 116.3855 15.75416966  2587"}}, "geometry": {"type": "Point", "coordinates": [-10.509913685256564, -42.908538947976425]}}, {"type": "Feature", "properties": {"norad_id": 66857, "name": "STARLINK-36083", "group": "last-30-days", "lat": -42.78696873857135, "lon": -7.9132538814888544, "alt_km": 347.64071530059846, "timestamp": "2025-12-20T09:36:00.353868+00:00", "meta": {"OBJECT_NAME": "STARLINK-36083", "OBJECT_ID": "2025-281K", "EPOCH": "2025-12-20T04:00:00.999072", "MEAN_MOTION": 15.75423503, "ECCENTRICITY": 0.0001422, "INCLINATION": 43.0007, "RA_OF_ASC_NODE": 76.8528, "ARG_OF_PERICENTER": 275.335, "MEAN_ANOMALY": 114.8883, "EPHEMERIS_TYPE": 0, "CLASSIFICATION_TYPE": "U", "NORAD_CAT_ID": 66857, "ELEMENT_SET_NO": 999, "REV_AT_EPOCH": 258, "BSTAR": -0.0090319, "MEAN_MOTION_DOT": -0.01267218, "MEAN_MOTION_DDOT": 0}, "tle": {"line1": "1 66857U 25281K   25354.16667823 -.01267218  00000+0 -90319-2 0  9990", "line2": "2 66857  43.0007  76.8528 0001422 275.3350 114.8883 15.75423503  2581"}}, "geometry": {"type": "Point", "coordinates": [-7.9132538814888544, -42.78696873857135]}}]}